TIANMU-1 08             
1 57400U 23101B   26066.00237819  .00000346  00000+0  14775-4 0  9993
2 57400  97.2717 118.7901 0006380 134.2174 225.9592 15.29204229146020
STARLINK-31764          
1 59653U 24082Y   26068.22930562 -.00002381  00000+0 -77020-4 0  9990
2 59653  42.9998 142.2225 0000859 256.2359 103.8397 15.27582221104947
